GOES 17                 
1 43226U 18022A   20166.22132420  .00000100  00000-0  00000-0 0  9992
2 43226   0.0413 231.5990 0000264 237.1727  96.6883  1.00272864  8410
HISPASAT 30W-6          
1 43228U 18023A   20166.12557848 -.00000214  00000-0  00000-0 0  9996
2 43228   0.0419  42.9705 0005756  30.5880 204.5225  1.00272654  8475
SUPERBIRD 8             
1 43271U 18033A   20166.55327299 -.00000089  00000-0  00000+0 0  9996
2 43271   0.0116  13.5523 0001463  93.3469 157.5670  1.00270025  8044
HYLAS 4                 
1 43272U 18033B   20166.12957365 -.00000231  00000-0  00000-0 0  9993
2 43272   0.0662 124.0578 0003572  22.4585 129.5030  1.00272920  8083
IRNSS-1I                
1 43286U 18035A   20165.91577032  .00000110  00000-0  00000+0 0  9999
2 43286  29.1496 109.4920 0018947 186.6701 351.1667  1.00270914  8066
USA 283                 
1 43339U 18036A   20166.52855567 -.00000314  00000-0  00000+0 0  9996
2 43339   0.0171 332.6179 0000389 205.3248  49.7092  1.00272539  3315
COSMOS 2526             
1 43432U 18037A   20166.20685730 -.00000342  00000-0  00000-0 0  9991
2 43432   0.0130  65.9302 0000239 171.8530 227.7112  1.00274756  7984
APSTAR 6C               
1 43450U 18041A   20164.64939506 -.00000321  00000-0  00000+0 0  9991
2 43450   0.0564 130.2798 0002771 303.3265 195.5599  1.00267576  7826
BANGABANDHUSAT-1        
1 43463U 18044A   20166.06152225 -.00000361  00000-0  00000+0 0  9995
2 43463   0.0228  75.7761 0001864  19.8394 308.4432  1.00273539  7731
SES-12                  
1 43488U 18049A   20166.47410407 -.00000266  00000-0  00000+0 0  9995
2 43488   0.0300  57.2115 0000598 216.4618 255.2266  1.00271617  7429
FENGYUN 2H              
1 43491U 18050A   20166.01021661 -.00000128  00000-0  00000-0 0  9999
2 43491   0.6643 274.3293 0003483 217.1890 214.3231  1.00271591  7502
BEIDOU IGSO-7           
1 43539U 18057A   20166.02753815 -.00000057  00000-0  00000+0 0  9993
2 43539  55.0406 182.2810 0029879 214.6111 349.0108  1.00268538  7150
TELSTAR 19V             
1 43562U 18059A   20166.33104962 -.00000277  00000-0  00000+0 0  9992
2 43562   0.0119  13.6194 0002447 133.1554 172.4842  1.00269604  7166
TELKOM 4 (MERAH PUTIH)  
1 43587U 18064A   20166.05934135 -.00000342  00000-0  00000+0 0  9990
2 43587   0.0187 320.5462 0001500 148.9577 282.6715  1.00272651  6869
TELSTAR 18V (APSTAR 5C) 
1 43611U 18069A   20166.20877649 -.00000292  00000-0  00000-0 0  9991
2 43611   0.0182 358.8847 0002069  90.1890  27.0446  1.00271256  6637
AZERSPACE 2 (IS-38)     
1 43632U 18074A   20166.47748890  .00000140  00000-0  00000+0 0  9994
2 43632   0.0228 336.9333 0001572 106.1083  37.1933  1.00268803  6501
HORIZONS 3E             
1 43633U 18074B   20166.55524156 -.00000027  00000-0  00000+0 0  9996
2 43633   0.0198 166.2333 0000779 107.4050 358.5505  1.00271274  6341
AEHF-4 (USA 288)        
1 43651U 18079A   20166.22325765  .00000130  00000-0  00000-0 0  9995
2 43651   3.8820 311.2068 0005095 147.4522  94.6576  1.00268139  6291
BEIDOU-3 G1             
1 43683U 18085A   20166.06617271 -.00000274  00000-0  00000+0 0  9994
2 43683   1.7736 255.8303 0003844 346.3773 184.4906  1.00273879  6069
GSAT-29                 
1 43698U 18089A   20166.19228890  .00000087  00000-0  00000-0 0  9995
2 43698   0.0699 107.0987 0002828 326.0054 314.0992  1.00272954  5786
ES'HAIL 2               
1 43700U 18090A   20166.16785473  .00000146  00000-0  00000-0 0  9999
2 43700   0.0144  60.5549 0001390  48.9154 239.6637  1.00273715  5678
GEO-KOMPSAT-2A          
1 43823U 18100A   20166.03035699 -.00000342  00000-0  00000+0 0  9999
2 43823   0.0150 128.6160 0002012 318.2943 315.0607  1.00269417  5666
GSAT-11                 
1 43824U 18100B   20166.18035524 -.00000075  00000-0  00000-0 0  9997
2 43824   0.0549 268.8472 0007711 187.1247 305.8809  1.00272255  5512
GSAT-7A                 
1 43864U 18105A   20166.18590979  .00000028  00000-0  00000-0 0  9993
2 43864   0.0145 287.3928 0002628 151.2881 313.9713  1.00273956  5476
COSMOS 2533             
1 43867U 18107A   20166.18590979 -.00000037  00000-0  00000-0 0  9999
2 43867   0.0288  96.5952 0000940 148.1622 155.1070  1.00275519  5410
TJS-3                   
1 43874U 18110A   20166.70824524  .00000006  00000-0  00000+0 0  9999
2 43874   0.0537  84.7957 0005076  88.4231 158.0988  1.00272650  5486
TJS-3 AKM               
1 43917U 18110C   20166.69562944  .00000061  00000-0  00000+0 0  9991
2 43917   0.1179 256.1033 0002478 199.7968 116.9436  1.00271164  5348
CHINASAT 2D (ZX 2D)     
1 43920U 19001A   20166.34535542 -.00000334  00000-0  00000+0 0  9995
2 43920   0.0382 243.8404 0002458 168.8178 104.8036  1.00273403  5351
HELLAS-SAT 4 & SGS-1    
1 44034U 19007A   20166.27688258  .00000155  00000-0  00000+0 0  9993
2 44034   0.0704 129.3890 0005701   8.8238 263.4875  1.00273119  5376
GSAT-31                 
1 44035U 19007B   20166.19089313  .00000127  00000-0  00000-0 0  9992
2 44035   0.0493 123.3447 0001083 266.9811 349.1927  1.00273365  4975
NUSANTARA SATU          
1 44048U 19009A   20166.25862878 -.00000232  00000-0  00000-0 0  9998
2 44048   0.0093  23.9350 0002038  62.9689  55.2173  1.00271897  4764
CHINASAT 6C (ZX 6C)     
1 44067U 19012A   20166.64007484 -.00000333  00000-0  99999+0 0  9996
2 44067   0.0721 263.5660 0000788  44.1788 316.0743  1.00271053  4733
WGS 10 (USA 291)        
1 44071U 19014A   20166.16785473  .00000141  00000-0  00000+0 0  9992
2 44071   0.1059 100.7735 0000467   4.2716 242.3285  1.00273470  4603
TIANLIAN 2-01           
1 44076U 19017A   20162.17729052 -.00000142  00000-0  00000-0 0  9991
2 44076   2.0231 286.4859 0033349 209.0821 267.1382  1.00268959  4572
ARABSAT-6A              
1 44186U 19021A   20166.18740368  .00000155  00000-0  00000-0 0  9999
2 44186   0.0478 339.6255 0000814 181.8697 199.3832  1.00266795  4195
BEIDOU-3 IGSO-1         
1 44204U 19023A   20166.29699539 -.00000234  00000-0  10000-3 0  9990
2 44204  55.4900  60.9483 0016356 183.1324 237.3609  1.00295241  4369
BEIDOU-2 G8             
1 44231U 19027A   20166.54146330 -.00000243  00000-0  00000+0 0  9993
2 44231   0.9900 297.1855 0005929 269.8187  35.7631  1.00272840  4099
YAMAL 601               
1 44307U 19031A   20166.19115483  .00000122  00000-0  00000-0 0  9994
2 44307   0.0180   6.6107 0002207  73.0764 301.0716  1.00271306  3952
AT&T T-16               
1 44333U 19034A   20166.38695251 -.00000112  00000-0  00000+0 0  9992
2 44333   0.0160 324.7750 0000463 352.3705 344.4443  1.00270073  3641
EUTELSAT 7C             
1 44334U 19034B   20166.20674314  .00000050  00000-0  00000-0 0  9992
2 44334   0.0158 336.3985 0003606  97.2817 270.7300  1.00269802  4113
BEIDOU-3 IGSO-2         
1 44337U 19035A   20166.26124080 -.00000041  00000-0  00000-0 0  9993
2 44337  55.0657 178.3326 0014701 190.3915  94.6088  1.00290481  3690
COSMOS 2539             
1 44457U 19048A   20166.18373977  .00000084  00000-0  00000-0 0  9998
2 44457   0.0349  97.7395 0000703 118.8707 124.4711  1.00273530  3200
EDRS-C                  
1 44475U 19049A   20166.18301633  .00000157  00000-0  00000+0 0  9999
2 44475   0.0235 306.6205 0000532 112.4350 300.9472  1.00273094  3198
INTELSAT 39 (IS-39)     
1 44476U 19049B   20166.18590979  .00000035  00000-0  00000-0 0  9999
2 44476   0.0126 317.5764 0000920 347.3625  86.8727  1.00271899  3187
AMOS-17                 
1 44479U 19050A   20166.18452490  .00000112  00000-0  00000-0 0  9995
2 44479   0.0254 288.1492 0002055 160.6255 257.5810  1.00273721  3196
AEHF-5 (USA 292)        
1 44481U 19051A   20165.81202567 -.00000219  00000-0  00000+0 0  9994
2 44481   5.9800 308.3906 0003013 155.6981  38.6811  1.01123254  3252
EUTELSAT 5 WEST B       
1 44624U 19067A   20166.18033757 -.00000040  00000-0  00000-0 0  9997
2 44624   0.0391   6.1652 0006304  96.2184 220.4652  1.00271581  2455
TJS-4                   
1 44637U 19070A   20166.17480089 -.00000168  00000-0  00000-0 0  9999
2 44637   0.0412 156.0971 0006044 239.0983  14.1812  1.00271956  2561
BEIDOU-3 IGSO-3         
1 44709U 19073A   20166.42011525 -.00000188  00000-0  10000-3 0  9991
2 44709  58.4083 303.9309 0023536 183.8526  33.7515  1.00283023  2457
TIBA-1                  
1 44800U 19080A   20166.18818881  .00000158  00000-0  00000+0 0  9995
2 44800   0.0565 343.0851 0002128 120.4683 262.6371  1.00274118  2086
INMARSAT GX5            
1 44801U 19080B   20166.30142321 -.00000203  00000-0  00000+0 0  9991
2 44801   0.0793 105.7723 0003053 344.9374 252.8377  1.00270138  2084
JCSAT-18 (KACIFIC 1)    
1 44868U 19091A   20166.35490962 -.00000198  00000-0  00000+0 0  9991
2 44868   0.0395 153.8306 0000488 359.6417  27.3785  1.00273269  2093
ELEKTRO-L 3             
1 44903U 19095A   20166.49162175 -.00000206  00000-0  00000+0 0  9992
2 44903   0.1695 285.0445 0071684 226.7473  43.7556  0.99209183  1730
SHIJIAN-20 (SJ-20)      
1 44910U 19097A   20166.71416744 -.00000348  00000-0  00000+0 0  9998
2 44910   0.2133  93.4164 0006842 122.9158  69.9700  1.00273126  1705
GSAT-30                 
1 45026U 20005A   20166.17480089 -.00000162  00000-0  00000+0 0  9995
2 45026   0.1076 104.1706 0005750 338.2852 326.3876  1.00271877  1537
JCSAT-17                
1 45245U 20013A   20165.84848475 -.00000321  00000-0  00000-0 0  9995
2 45245   6.9025 344.0601 0002169 117.3969 242.6183  1.00271462  1242
GEO-KOMPSAT-2B          
1 45246U 20013B   20166.49406435 -.00000340  00000-0  00000+0 0  9994
2 45246   0.0426 180.4123 0000741  79.8255 309.1124  1.00273176  1257
BEIDOU-3 G2             
1 45344U 20017A   20166.56716008 -.00000139  00000-0  00000+0 0  9991
2 45344   2.9634 328.2011 0003201 122.0052  97.3436  1.00271523  1274
